SAC-D
1 37673U 11024A   13364.47763912 +.00000000 +00000+0 +13398-4 6  9634
2 37673  98.0119   9.1026 0001488  72.6871 150.1467 14.72327493136945
